<?xml version="1.0" encoding="UTF-8"?>
<gpx creator="Garmin Connect" version="1.1"
  xsi:schemaLocation="http://www.topografix.com/GPX/1/1 http://www.topografix.com/GPX/11.xsd"
  xmlns:ns3="http://www.garmin.com/xmlschemas/TrackPointExtension/v1"
  xmlns="http://www.topografix.com/GPX/1/1"
  xmlns:xsi="http://www.w3.org/2001/XMLSchema-instance" xmlns:ns2="http://www.garmin.com/xmlschemas/GpxExtensions/v3">
  <metadata>
    <link href="connect.garmin.com">
      <text>Garmin Connect</text>
    </link>
    <time>2017-09-04T23:15:48.000Z</time>
  </metadata>
  <trk>
    <name>Cora Hiking</name>
    <type>hiking</type>
    <trkseg>
      <trkpt lat="43.32900079898536205291748046875" lon="-109.71654958091676235198974609375">
        <ele>3588.800048828125</ele>
        <time>2017-09-04T23:15:53.000Z</time>
        <extensions>
          <ns3:TrackPointExtension>
            <ns3:atemp>27.0</ns3:atemp>
            <ns3:cad>0</ns3:cad>
          </ns3:TrackPointExtension>
        </extensions>
      </trkpt>
      <trkpt lat="43.32892552949488162994384765625" lon="-109.71627482213079929351806640625">
        <ele>3587.60009765625</ele>
        <time>2017-09-04T23:16:20.000Z</time>
        <extensions>
          <ns3:TrackPointExtension>
            <ns3:atemp>27.0</ns3:atemp>
            <ns3:cad>0</ns3:cad>
          </ns3:TrackPointExtension>
        </extensions>
      </trkpt>
      <trkpt lat="43.32883282564580440521240234375" lon="-109.7163935936987400054931640625">
        <ele>3586.39990234375</ele>
        <time>2017-09-04T23:16:49.000Z</time>
        <extensions>
          <ns3:TrackPointExtension>
            <ns3:atemp>28.0</ns3:atemp>
            <ns3:cad>61</ns3:cad>
          </ns3:TrackPointExtension>
        </extensions>
      </trkpt>
      <trkpt lat="43.328782282769680023193359375" lon="-109.71642033196985721588134765625">
        <ele>3585.800048828125</ele>
        <time>2017-09-04T23:16:58.000Z</time>
        <extensions>
          <ns3:TrackPointExtension>
            <ns3:atemp>28.0</ns3:atemp>
            <ns3:cad>61</ns3:cad>
          </ns3:TrackPointExtension>
        </extensions>
      </trkpt>
      <trkpt lat="43.32876577042043209075927734375" lon="-109.7164405323565006256103515625">
        <ele>3585.39990234375</ele>
        <time>2017-09-04T23:17:00.000Z</time>
        <extensions>
          <ns3:TrackPointExtension>
            <ns3:atemp>28.0</ns3:atemp>
            <ns3:cad>61</ns3:cad>
          </ns3:TrackPointExtension>
        </extensions>
      </trkpt>
      <trkpt lat="43.3287358470261096954345703125" lon="-109.716520495712757110595703125">
        <ele>3586.60009765625</ele>
        <time>2017-09-04T23:17:15.000Z</time>
        <extensions>
          <ns3:TrackPointExtension>
            <ns3:atemp>28.0</ns3:atemp>
            <ns3:cad>61</ns3:cad>
          </ns3:TrackPointExtension>
        </extensions>
      </trkpt>
      <trkpt lat="43.32874816842377185821533203125" lon="-109.71653801389038562774658203125">
        <ele>3587.60009765625</ele>
        <time>2017-09-04T23:17:18.000Z</time>
        <extensions>
          <ns3:TrackPointExtension>
            <ns3:atemp>28.0</ns3:atemp>
            <ns3:cad>0</ns3:cad>
          </ns3:TrackPointExtension>
        </extensions>
      </trkpt>
      <trkpt lat="43.32876987755298614501953125" lon="-109.71658327616751194000244140625">
        <ele>3588.800048828125</ele>
        <time>2017-09-04T23:17:25.000Z</time>
        <extensions>
          <ns3:TrackPointExtension>
            <ns3:atemp>28.0</ns3:atemp>
            <ns3:cad>62</ns3:cad>
          </ns3:TrackPointExtension>
        </extensions>
      </trkpt>
      <trkpt lat="43.3287945203483104705810546875" lon="-109.71664764918386936187744140625">
        <ele>3589.800048828125</ele>
        <time>2017-09-04T23:17:36.000Z</time>
        <extensions>
          <ns3:TrackPointExtension>
            <ns3:atemp>28.0</ns3:atemp>
            <ns3:cad>0</ns3:cad>
          </ns3:TrackPointExtension>
        </extensions>
      </trkpt>
      <trkpt lat="43.32874548621475696563720703125" lon="-109.7166386805474758148193359375">
        <ele>3590.39990234375</ele>
        <time>2017-09-04T23:18:15.000Z</time>
        <extensions>
          <ns3:TrackPointExtension>
            <ns3:atemp>28.0</ns3:atemp>
            <ns3:cad>0</ns3:cad>
          </ns3:TrackPointExtension>
        </extensions>
      </trkpt>
      <trkpt lat="43.32867306657135486602783203125" lon="-109.716681428253650665283203125">
        <ele>3588.800048828125</ele>
        <time>2017-09-04T23:18:25.000Z</time>
        <extensions>
          <ns3:TrackPointExtension>
            <ns3:atemp>28.0</ns3:atemp>
            <ns3:cad>54</ns3:cad>
          </ns3:TrackPointExtension>
        </extensions>
      </trkpt>
      <trkpt lat="43.32864104770123958587646484375" lon="-109.71675024367868900299072265625">
        <ele>3589</ele>
        <time>2017-09-04T23:18:31.000Z</time>
        <extensions>
          <ns3:TrackPointExtension>
            <ns3:atemp>28.0</ns3:atemp>
            <ns3:cad>55</ns3:cad>
          </ns3:TrackPointExtension>
        </extensions>
      </trkpt>
      <trkpt lat="43.32862596027553081512451171875" lon="-109.71684847958385944366455078125">
        <ele>3589.800048828125</ele>
        <time>2017-09-04T23:18:38.000Z</time>
        <extensions>
          <ns3:TrackPointExtension>
            <ns3:atemp>28.0</ns3:atemp>
            <ns3:cad>48</ns3:cad>
          </ns3:TrackPointExtension>
        </extensions>
      </trkpt>
      <trkpt lat="43.3286037482321262359619140625" lon="-109.71700438298285007476806640625">
        <ele>3590.39990234375</ele>
        <time>2017-09-04T23:18:51.000Z</time>
        <extensions>
          <ns3:TrackPointExtension>
            <ns3:atemp>28.0</ns3:atemp>
            <ns3:cad>0</ns3:cad>
          </ns3:TrackPointExtension>
        </extensions>
      </trkpt>
      <trkpt lat="43.328525461256504058837890625" lon="-109.71717420034110546112060546875">
        <ele>3588.60009765625</ele>
        <time>2017-09-04T23:19:12.000Z</time>
        <extensions>
          <ns3:TrackPointExtension>
            <ns3:atemp>28.0</ns3:atemp>
            <ns3:cad>0</ns3:cad>
          </ns3:TrackPointExtension>
        </extensions>
      </trkpt>
      <trkpt lat="43.3283804543316364288330078125" lon="-109.717300347983837127685546875">
        <ele>3589</ele>
        <time>2017-09-04T23:19:39.000Z</time>
        <extensions>
          <ns3:TrackPointExtension>
            <ns3:atemp>28.0</ns3:atemp>
            <ns3:cad>46</ns3:cad>
          </ns3:TrackPointExtension>
        </extensions>
      </trkpt>
      <trkpt lat="43.32835690118372440338134765625" lon="-109.7173528186976909637451171875">
        <ele>3587.39990234375</ele>
        <time>2017-09-04T23:19:45.000Z</time>
        <extensions>
          <ns3:TrackPointExtension>
            <ns3:atemp>28.0</ns3:atemp>
            <ns3:cad>51</ns3:cad>
          </ns3:TrackPointExtension>
        </extensions>
      </trkpt>
      <trkpt lat="43.3283543027937412261962890625" lon="-109.71737570129334926605224609375">
        <ele>3587</ele>
        <time>2017-09-04T23:19:47.000Z</time>
        <extensions>
          <ns3:TrackPointExtension>
            <ns3:atemp>28.0</ns3:atemp>
            <ns3:cad>50</ns3:cad>
          </ns3:TrackPointExtension>
        </extensions>
      </trkpt>
      <trkpt lat="43.328343071043491363525390625" lon="-109.71738944761455059051513671875">
        <ele>3586.800048828125</ele>
        <time>2017-09-04T23:19:49.000Z</time>
        <extensions>
          <ns3:TrackPointExtension>
            <ns3:atemp>28.0</ns3:atemp>
            <ns3:cad>50</ns3:cad>
          </ns3:TrackPointExtension>
        </extensions>
      </trkpt>
      <trkpt lat="43.3283279836177825927734375" lon="-109.71740285865962505340576171875">
        <ele>3586.60009765625</ele>
        <time>2017-09-04T23:19:51.000Z</time>
        <extensions>
          <ns3:TrackPointExtension>
            <ns3:atemp>28.0</ns3:atemp>
            <ns3:cad>50</ns3:cad>
          </ns3:TrackPointExtension>
        </extensions>
      </trkpt>
      <trkpt lat="43.3283180929720401763916015625" lon="-109.71742833964526653289794921875">
        <ele>3586.199951171875</ele>
        <time>2017-09-04T23:19:53.000Z</time>
        <extensions>
          <ns3:TrackPointExtension>
            <ns3:atemp>28.0</ns3:atemp>
            <ns3:cad>51</ns3:cad>
          </ns3:TrackPointExtension>
        </extensions>
      </trkpt>
      <trkpt lat="43.328306190669536590576171875" lon="-109.71743755973875522613525390625">
        <ele>3585.199951171875</ele>
        <time>2017-09-04T23:19:57.000Z</time>
        <extensions>
          <ns3:TrackPointExtension>
            <ns3:atemp>28.0</ns3:atemp>
            <ns3:cad>51</ns3:cad>
          </ns3:TrackPointExtension>
        </extensions>
      </trkpt>
      <trkpt lat="43.32830476574599742889404296875" lon="-109.7174366377294063568115234375">
        <ele>3585.199951171875</ele>
        <time>2017-09-04T23:19:58.000Z</time>
        <extensions>
          <ns3:TrackPointExtension>
            <ns3:atemp>28.0</ns3:atemp>
            <ns3:cad>0</ns3:cad>
          </ns3:TrackPointExtension>
        </extensions>
      </trkpt>
      <trkpt lat="43.32825849764049053192138671875" lon="-109.71749371849000453948974609375">
        <ele>3584.199951171875</ele>
        <time>2017-09-04T23:20:07.000Z</time>
        <extensions>
          <ns3:TrackPointExtension>
            <ns3:atemp>28.0</ns3:atemp>
            <ns3:cad>0</ns3:cad>
          </ns3:TrackPointExtension>
        </extensions>
      </trkpt>
      <trkpt lat="43.3282483555376529693603515625" lon="-109.7175040282309055328369140625">
        <ele>3583.800048828125</ele>
        <time>2017-09-04T23:20:08.000Z</time>
        <extensions>
          <ns3:TrackPointExtension>
            <ns3:atemp>28.0</ns3:atemp>
            <ns3:cad>0</ns3:cad>
          </ns3:TrackPointExtension>
        </extensions>
      </trkpt>
      <trkpt lat="43.3282262273132801055908203125" lon="-109.71753160469233989715576171875">
        <ele>3583.800048828125</ele>
        <time>2017-09-04T23:20:11.000Z</time>
        <extensions>
          <ns3:TrackPointExtension>
            <ns3:atemp>28.0</ns3:atemp>
            <ns3:cad>0</ns3:cad>
          </ns3:TrackPointExtension>
        </extensions>
      </trkpt>
      <trkpt lat="43.32821155898272991180419921875" lon="-109.717561192810535430908203125">
        <ele>3583.800048828125</ele>
        <time>2017-09-04T23:20:14.000Z</time>
        <extensions>
          <ns3:TrackPointExtension>
            <ns3:atemp>28.0</ns3:atemp>
            <ns3:cad>0</ns3:cad>
          </ns3:TrackPointExtension>
        </extensions>
      </trkpt>
      <trkpt lat="43.3282180130481719970703125" lon="-109.71768080256879329681396484375">
        <ele>3585.39990234375</ele>
        <time>2017-09-04T23:20:33.000Z</time>
        <extensions>
          <ns3:TrackPointExtension>
            <ns3:atemp>28.0</ns3:atemp>
            <ns3:cad>0</ns3:cad>
          </ns3:TrackPointExtension>
        </extensions>
      </trkpt>
      <trkpt lat="43.32819077186286449432373046875" lon="-109.71777937375009059906005859375">
        <ele>3585.800048828125</ele>
        <time>2017-09-04T23:20:41.000Z</time>
        <extensions>
          <ns3:TrackPointExtension>
            <ns3:atemp>28.0</ns3:atemp>
            <ns3:cad>40</ns3:cad>
          </ns3:TrackPointExtension>
        </extensions>
      </trkpt>
      <trkpt lat="43.32817099057137966156005859375" lon="-109.71781943924725055694580078125">
        <ele>3584.800048828125</ele>
        <time>2017-09-04T23:20:45.000Z</time>
        <extensions>
          <ns3:TrackPointExtension>
            <ns3:atemp>28.0</ns3:atemp>
            <ns3:cad>40</ns3:cad>
          </ns3:TrackPointExtension>
        </extensions>
      </trkpt>
      <trkpt lat="43.3281065337359905242919921875" lon="-109.71793427132070064544677734375">
        <ele>3584.39990234375</ele>
        <time>2017-09-04T23:20:57.000Z</time>
        <extensions>
          <ns3:TrackPointExtension>
            <ns3:atemp>28.0</ns3:atemp>
            <ns3:cad>47</ns3:cad>
          </ns3:TrackPointExtension>
        </extensions>
      </trkpt>
      <trkpt lat="43.32810091786086559295654296875" lon="-109.71794114448130130767822265625">
        <ele>3584.39990234375</ele>
        <time>2017-09-04T23:20:58.000Z</time>
        <extensions>
          <ns3:TrackPointExtension>
            <ns3:atemp>28.0</ns3:atemp>
            <ns3:cad>47</ns3:cad>
          </ns3:TrackPointExtension>
        </extensions>
      </trkpt>
      <trkpt lat="43.32809689454734325408935546875" lon="-109.717949442565441131591796875">
        <ele>3584.60009765625</ele>
        <time>2017-09-04T23:21:01.000Z</time>
        <extensions>
          <ns3:TrackPointExtension>
            <ns3:atemp>28.0</ns3:atemp>
            <ns3:cad>0</ns3:cad>
          </ns3:TrackPointExtension>
        </extensions>
      </trkpt>
      <trkpt lat="43.3280629478394985198974609375" lon="-109.717924296855926513671875">
        <ele>3584.39990234375</ele>
        <time>2017-09-04T23:21:19.000Z</time>
        <extensions>
          <ns3:TrackPointExtension>
            <ns3:atemp>28.0</ns3:atemp>
            <ns3:cad>51</ns3:cad>
          </ns3:TrackPointExtension>
        </extensions>
      </trkpt>
      <trkpt lat="43.32803989760577678680419921875" lon="-109.71790979616343975067138671875">
        <ele>3584.199951171875</ele>
        <time>2017-09-04T23:21:22.000Z</time>
        <extensions>
          <ns3:TrackPointExtension>
            <ns3:atemp>28.0</ns3:atemp>
            <ns3:cad>51</ns3:cad>
          </ns3:TrackPointExtension>
        </extensions>
      </trkpt>
      <trkpt lat="43.3280337788164615631103515625" lon="-109.71790610812604427337646484375">
        <ele>3583.39990234375</ele>
        <time>2017-09-04T23:21:30.000Z</time>
        <extensions>
          <ns3:TrackPointExtension>
            <ns3:atemp>28.0</ns3:atemp>
            <ns3:cad>0</ns3:cad>
          </ns3:TrackPointExtension>
        </extensions>
      </trkpt>
      <trkpt lat="43.32801944576203823089599609375" lon="-109.71789688803255558013916015625">
        <ele>3582.800048828125</ele>
        <time>2017-09-04T23:21:44.000Z</time>
        <extensions>
          <ns3:TrackPointExtension>
            <ns3:atemp>28.0</ns3:atemp>
            <ns3:cad>0</ns3:cad>
          </ns3:TrackPointExtension>
        </extensions>
      </trkpt>
      <trkpt lat="43.32767696119844913482666015625" lon="-109.71828044392168521881103515625">
        <ele>3583.60009765625</ele>
        <time>2017-09-04T23:23:31.000Z</time>
        <extensions>
          <ns3:TrackPointExtension>
            <ns3:atemp>28.0</ns3:atemp>
            <ns3:cad>0</ns3:cad>
          </ns3:TrackPointExtension>
        </extensions>
      </trkpt>
      <trkpt lat="43.3276518993079662322998046875" lon="-109.71827055327594280242919921875">
        <ele>3584.800048828125</ele>
        <time>2017-09-04T23:23:33.000Z</time>
        <extensions>
          <ns3:TrackPointExtension>
            <ns3:atemp>28.0</ns3:atemp>
            <ns3:cad>61</ns3:cad>
          </ns3:TrackPointExtension>
        </extensions>
      </trkpt>
      <trkpt lat="43.32764795981347560882568359375" lon="-109.71827709116041660308837890625">
        <ele>3586</ele>
        <time>2017-09-04T23:23:34.000Z</time>
        <extensions>
          <ns3:TrackPointExtension>
            <ns3:atemp>28.0</ns3:atemp>
            <ns3:cad>61</ns3:cad>
          </ns3:TrackPointExtension>
        </extensions>
      </trkpt>
      <trkpt lat="43.327543102204799652099609375" lon="-109.71835772506892681121826171875">
        <ele>3584.800048828125</ele>
        <time>2017-09-04T23:23:53.000Z</time>
        <extensions>
          <ns3:TrackPointExtension>
            <ns3:atemp>28.0</ns3:atemp>
            <ns3:cad>61</ns3:cad>
          </ns3:TrackPointExtension>
        </extensions>
      </trkpt>
      <trkpt lat="43.32754771225154399871826171875" lon="-109.7183869779109954833984375">
        <ele>3583.60009765625</ele>
        <time>2017-09-04T23:23:58.000Z</time>
        <extensions>
          <ns3:TrackPointExtension>
            <ns3:atemp>28.0</ns3:atemp>
            <ns3:cad>0</ns3:cad>
          </ns3:TrackPointExtension>
        </extensions>
      </trkpt>
      <trkpt lat="43.32748644053936004638671875" lon="-109.71845059655606746673583984375">
        <ele>3582.60009765625</ele>
        <time>2017-09-04T23:24:11.000Z</time>
        <extensions>
          <ns3:TrackPointExtension>
            <ns3:atemp>28.0</ns3:atemp>
            <ns3:cad>0</ns3:cad>
          </ns3:TrackPointExtension>
        </extensions>
      </trkpt>
      <trkpt lat="43.32746573723852634429931640625" lon="-109.718474484980106353759765625">
        <ele>3583.800048828125</ele>
        <time>2017-09-04T23:24:15.000Z</time>
        <extensions>
          <ns3:TrackPointExtension>
            <ns3:atemp>28.0</ns3:atemp>
            <ns3:cad>61</ns3:cad>
          </ns3:TrackPointExtension>
        </extensions>
      </trkpt>
      <trkpt lat="43.3274302817881107330322265625" lon="-109.71854011528193950653076171875">
        <ele>3582.60009765625</ele>
        <time>2017-09-04T23:24:25.000Z</time>
        <extensions>
          <ns3:TrackPointExtension>
            <ns3:atemp>28.0</ns3:atemp>
            <ns3:cad>61</ns3:cad>
          </ns3:TrackPointExtension>
        </extensions>
      </trkpt>
      <trkpt lat="43.3273944072425365447998046875" lon="-109.7186543606221675872802734375">
        <ele>3583.60009765625</ele>
        <time>2017-09-04T23:24:40.000Z</time>
        <extensions>
          <ns3:TrackPointExtension>
            <ns3:atemp>28.0</ns3:atemp>
            <ns3:cad>61</ns3:cad>
          </ns3:TrackPointExtension>
        </extensions>
      </trkpt>
      <trkpt lat="43.32739398814737796783447265625" lon="-109.71890757791697978973388671875">
        <ele>3583.199951171875</ele>
        <time>2017-09-04T23:25:07.000Z</time>
        <extensions>
          <ns3:TrackPointExtension>
            <ns3:atemp>28.0</ns3:atemp>
            <ns3:cad>0</ns3:cad>
          </ns3:TrackPointExtension>
        </extensions>
      </trkpt>
      <trkpt lat="43.327386863529682159423828125" lon="-109.71895585767924785614013671875">
        <ele>3582.39990234375</ele>
        <time>2017-09-04T23:25:13.000Z</time>
        <extensions>
          <ns3:TrackPointExtension>
            <ns3:atemp>28.0</ns3:atemp>
            <ns3:cad>46</ns3:cad>
          </ns3:TrackPointExtension>
        </extensions>
      </trkpt>
      <trkpt lat="43.327378146350383758544921875" lon="-109.718990810215473175048828125">
        <ele>3581.39990234375</ele>
        <time>2017-09-04T23:25:20.000Z</time>
        <extensions>
          <ns3:TrackPointExtension>
            <ns3:atemp>28.0</ns3:atemp>
            <ns3:cad>61</ns3:cad>
          </ns3:TrackPointExtension>
        </extensions>
      </trkpt>
      <trkpt lat="43.327381499111652374267578125" lon="-109.7190375812351703643798828125">
        <ele>3580.39990234375</ele>
        <time>2017-09-04T23:25:27.000Z</time>
        <extensions>
          <ns3:TrackPointExtension>
            <ns3:atemp>28.0</ns3:atemp>
            <ns3:cad>0</ns3:cad>
          </ns3:TrackPointExtension>
        </extensions>
      </trkpt>
      <trkpt lat="43.32738610915839672088623046875" lon="-109.7191388346254825592041015625">
        <ele>3579.199951171875</ele>
        <time>2017-09-04T23:25:37.000Z</time>
        <extensions>
          <ns3:TrackPointExtension>
            <ns3:atemp>28.0</ns3:atemp>
            <ns3:cad>0</ns3:cad>
          </ns3:TrackPointExtension>
        </extensions>
      </trkpt>
      <trkpt lat="43.32735593430697917938232421875" lon="-109.71922449767589569091796875">
        <ele>3578</ele>
        <time>2017-09-04T23:25:51.000Z</time>
        <extensions>
          <ns3:TrackPointExtension>
            <ns3:atemp>28.0</ns3:atemp>
            <ns3:cad>0</ns3:cad>
          </ns3:TrackPointExtension>
        </extensions>
      </trkpt>
      <trkpt lat="43.3273575268685817718505859375" lon="-109.71924997866153717041015625">
        <ele>3577.60009765625</ele>
        <time>2017-09-04T23:26:01.000Z</time>
        <extensions>
          <ns3:TrackPointExtension>
            <ns3:atemp>28.0</ns3:atemp>
            <ns3:cad>0</ns3:cad>
          </ns3:TrackPointExtension>
        </extensions>
      </trkpt>
      <trkpt lat="43.3273918926715850830078125" lon="-109.719261042773723602294921875">
        <ele>3577</ele>
        <time>2017-09-04T23:26:09.000Z</time>
        <extensions>
          <ns3:TrackPointExtension>
            <ns3:atemp>28.0</ns3:atemp>
            <ns3:cad>0</ns3:cad>
          </ns3:TrackPointExtension>
        </extensions>
      </trkpt>
      <trkpt lat="43.32742097787559032440185546875" lon="-109.7192935645580291748046875">
        <ele>3575.800048828125</ele>
        <time>2017-09-04T23:26:18.000Z</time>
        <extensions>
          <ns3:TrackPointExtension>
            <ns3:atemp>28.0</ns3:atemp>
            <ns3:cad>61</ns3:cad>
          </ns3:TrackPointExtension>
        </extensions>
      </trkpt>
      <trkpt lat="43.3274292759597301483154296875" lon="-109.719281829893589019775390625">
        <ele>3574.60009765625</ele>
        <time>2017-09-04T23:26:26.000Z</time>
        <extensions>
          <ns3:TrackPointExtension>
            <ns3:atemp>28.0</ns3:atemp>
            <ns3:cad>0</ns3:cad>
          </ns3:TrackPointExtension>
        </extensions>
      </trkpt>
      <trkpt lat="43.32742516882717609405517578125" lon="-109.71930705942213535308837890625">
        <ele>3573.60009765625</ele>
        <time>2017-09-04T23:26:33.000Z</time>
        <extensions>
          <ns3:TrackPointExtension>
            <ns3:atemp>29.0</ns3:atemp>
            <ns3:cad>0</ns3:cad>
          </ns3:TrackPointExtension>
        </extensions>
      </trkpt>
      <trkpt lat="43.3274343051016330718994140625" lon="-109.71936791203916072845458984375">
        <ele>3572.60009765625</ele>
        <time>2017-09-04T23:26:43.000Z</time>
        <extensions>
          <ns3:TrackPointExtension>
            <ns3:atemp>29.0</ns3:atemp>
            <ns3:cad>0</ns3:cad>
          </ns3:TrackPointExtension>
        </extensions>
      </trkpt>
      <trkpt lat="43.3274410106241703033447265625" lon="-109.7194020263850688934326171875">
        <ele>3571.39990234375</ele>
        <time>2017-09-04T23:26:49.000Z</time>
        <extensions>
          <ns3:TrackPointExtension>
            <ns3:atemp>29.0</ns3:atemp>
            <ns3:cad>0</ns3:cad>
          </ns3:TrackPointExtension>
        </extensions>
      </trkpt>
      <trkpt lat="43.327455259859561920166015625" lon="-109.7194969095289707183837890625">
        <ele>3570.39990234375</ele>
        <time>2017-09-04T23:27:02.000Z</time>
        <extensions>
          <ns3:TrackPointExtension>
            <ns3:atemp>29.0</ns3:atemp>
            <ns3:cad>61</ns3:cad>
          </ns3:TrackPointExtension>
        </extensions>
      </trkpt>
      <trkpt lat="43.3274644799530506134033203125" lon="-109.71953454427421092987060546875">
        <ele>3569.39990234375</ele>
        <time>2017-09-04T23:27:14.000Z</time>
        <extensions>
          <ns3:TrackPointExtension>
            <ns3:atemp>29.0</ns3:atemp>
            <ns3:cad>58</ns3:cad>
          </ns3:TrackPointExtension>
        </extensions>
      </trkpt>
      <trkpt lat="43.3274946548044681549072265625" lon="-109.719629175961017608642578125">
        <ele>3568.199951171875</ele>
        <time>2017-09-04T23:27:28.000Z</time>
        <extensions>
          <ns3:TrackPointExtension>
            <ns3:atemp>29.0</ns3:atemp>
            <ns3:cad>61</ns3:cad>
          </ns3:TrackPointExtension>
        </extensions>
      </trkpt>
      <trkpt lat="43.32749105058610439300537109375" lon="-109.71966614015400409698486328125">
        <ele>3567.39990234375</ele>
        <time>2017-09-04T23:27:44.000Z</time>
        <extensions>
          <ns3:TrackPointExtension>
            <ns3:atemp>29.0</ns3:atemp>
            <ns3:cad>0</ns3:cad>
          </ns3:TrackPointExtension>
        </extensions>
      </trkpt>
      <trkpt lat="43.32748501561582088470458984375" lon="-109.7196679003536701202392578125">
        <ele>3567</ele>
        <time>2017-09-04T23:27:47.000Z</time>
        <extensions>
          <ns3:TrackPointExtension>
            <ns3:atemp>29.0</ns3:atemp>
            <ns3:cad>0</ns3:cad>
          </ns3:TrackPointExtension>
        </extensions>
      </trkpt>
      <trkpt lat="43.32750010304152965545654296875" lon="-109.719739146530628204345703125">
        <ele>3566.39990234375</ele>
        <time>2017-09-04T23:27:57.000Z</time>
        <extensions>
          <ns3:TrackPointExtension>
            <ns3:atemp>29.0</ns3:atemp>
            <ns3:cad>61</ns3:cad>
          </ns3:TrackPointExtension>
        </extensions>
      </trkpt>
      <trkpt lat="43.327502198517322540283203125" lon="-109.7197629511356353759765625">
        <ele>3566.199951171875</ele>
        <time>2017-09-04T23:27:59.000Z</time>
        <extensions>
          <ns3:TrackPointExtension>
            <ns3:atemp>29.0</ns3:atemp>
            <ns3:cad>61</ns3:cad>
          </ns3:TrackPointExtension>
        </extensions>
      </trkpt>
      <trkpt lat="43.32751317881047725677490234375" lon="-109.71977493725717067718505859375">
        <ele>3566</ele>
        <time>2017-09-04T23:28:01.000Z</time>
        <extensions>
          <ns3:TrackPointExtension>
            <ns3:atemp>29.0</ns3:atemp>
            <ns3:cad>61</ns3:cad>
          </ns3:TrackPointExtension>
        </extensions>
      </trkpt>
      <trkpt lat="43.3275367319583892822265625" lon="-109.71977443434298038482666015625">
        <ele>3564.800048828125</ele>
        <time>2017-09-04T23:28:08.000Z</time>
        <extensions>
          <ns3:TrackPointExtension>
            <ns3:atemp>29.0</ns3:atemp>
            <ns3:cad>0</ns3:cad>
          </ns3:TrackPointExtension>
        </extensions>
      </trkpt>
      <trkpt lat="43.32753245718777179718017578125" lon="-109.71982422284781932830810546875">
        <ele>3563.800048828125</ele>
        <time>2017-09-04T23:28:15.000Z</time>
        <extensions>
          <ns3:TrackPointExtension>
            <ns3:atemp>29.0</ns3:atemp>
            <ns3:cad>61</ns3:cad>
          </ns3:TrackPointExtension>
        </extensions>
      </trkpt>
      <trkpt lat="43.3275389112532138824462890625" lon="-109.7198680602014064788818359375">
        <ele>3562.60009765625</ele>
        <time>2017-09-04T23:28:26.000Z</time>
        <extensions>
          <ns3:TrackPointExtension>
            <ns3:atemp>30.0</ns3:atemp>
            <ns3:cad>0</ns3:cad>
          </ns3:TrackPointExtension>
        </extensions>
      </trkpt>
      <trkpt lat="43.3275412581861019134521484375" lon="-109.71990619786083698272705078125">
        <ele>3561.60009765625</ele>
        <time>2017-09-04T23:28:38.000Z</time>
        <extensions>
          <ns3:TrackPointExtension>
            <ns3:atemp>30.0</ns3:atemp>
            <ns3:cad>0</ns3:cad>
          </ns3:TrackPointExtension>
        </extensions>
      </trkpt>
      <trkpt lat="43.327538073062896728515625" lon="-109.71995062194764614105224609375">
        <ele>3560.60009765625</ele>
        <time>2017-09-04T23:28:47.000Z</time>
        <extensions>
          <ns3:TrackPointExtension>
            <ns3:atemp>30.0</ns3:atemp>
            <ns3:cad>61</ns3:cad>
          </ns3:TrackPointExtension>
        </extensions>
      </trkpt>
      <trkpt lat="43.3275394141674041748046875" lon="-109.71998046152293682098388671875">
        <ele>3559.39990234375</ele>
        <time>2017-09-04T23:28:52.000Z</time>
        <extensions>
          <ns3:TrackPointExtension>
            <ns3:atemp>30.0</ns3:atemp>
            <ns3:cad>61</ns3:cad>
          </ns3:TrackPointExtension>
        </extensions>
      </trkpt>
      <trkpt lat="43.32755223847925662994384765625" lon="-109.7200015000998973846435546875">
        <ele>3558.39990234375</ele>
        <time>2017-09-04T23:28:58.000Z</time>
        <extensions>
          <ns3:TrackPointExtension>
            <ns3:atemp>30.0</ns3:atemp>
            <ns3:cad>61</ns3:cad>
          </ns3:TrackPointExtension>
        </extensions>
      </trkpt>
      <trkpt lat="43.327541090548038482666015625" lon="-109.720048271119594573974609375">
        <ele>3557.199951171875</ele>
        <time>2017-09-04T23:29:09.000Z</time>
        <extensions>
          <ns3:TrackPointExtension>
            <ns3:atemp>30.0</ns3:atemp>
            <ns3:cad>0</ns3:cad>
          </ns3:TrackPointExtension>
        </extensions>
      </trkpt>
      <trkpt lat="43.32754670642316341400146484375" lon="-109.72006226889789104461669921875">
        <ele>3556</ele>
        <time>2017-09-04T23:29:14.000Z</time>
        <extensions>
          <ns3:TrackPointExtension>
            <ns3:atemp>30.0</ns3:atemp>
            <ns3:cad>61</ns3:cad>
          </ns3:TrackPointExtension>
        </extensions>
      </trkpt>
      <trkpt lat="43.32753865979611873626708984375" lon="-109.72008909098803997039794921875">
        <ele>3555</ele>
        <time>2017-09-04T23:29:21.000Z</time>
        <extensions>
          <ns3:TrackPointExtension>
            <ns3:atemp>30.0</ns3:atemp>
            <ns3:cad>61</ns3:cad>
          </ns3:TrackPointExtension>
        </extensions>
      </trkpt>
      <trkpt lat="43.32752692513167858123779296875" lon="-109.7201560623943805694580078125">
        <ele>3554</ele>
        <time>2017-09-04T23:29:34.000Z</time>
        <extensions>
          <ns3:TrackPointExtension>
            <ns3:atemp>30.0</ns3:atemp>
            <ns3:cad>0</ns3:cad>
          </ns3:TrackPointExtension>
        </extensions>
      </trkpt>
      <trkpt lat="43.3275214768946170806884765625" lon="-109.7201731614768505096435546875">
        <ele>3552.800048828125</ele>
        <time>2017-09-04T23:29:39.000Z</time>
        <extensions>
          <ns3:TrackPointExtension>
            <ns3:atemp>30.0</ns3:atemp>
            <ns3:cad>0</ns3:cad>
          </ns3:TrackPointExtension>
        </extensions>
      </trkpt>
      <trkpt lat="43.327530361711978912353515625" lon="-109.72024281509220600128173828125">
        <ele>3551.800048828125</ele>
        <time>2017-09-04T23:29:51.000Z</time>
        <extensions>
          <ns3:TrackPointExtension>
            <ns3:atemp>30.0</ns3:atemp>
            <ns3:cad>61</ns3:cad>
          </ns3:TrackPointExtension>
        </extensions>
      </trkpt>
      <trkpt lat="43.3275244943797588348388671875" lon="-109.72024767659604549407958984375">
        <ele>3551.800048828125</ele>
        <time>2017-09-04T23:29:52.000Z</time>
        <extensions>
          <ns3:TrackPointExtension>
            <ns3:atemp>30.0</ns3:atemp>
            <ns3:cad>61</ns3:cad>
          </ns3:TrackPointExtension>
        </extensions>
      </trkpt>
      <trkpt lat="43.32750731147825717926025390625" lon="-109.7202593274414539337158203125">
        <ele>3550.60009765625</ele>
        <time>2017-09-04T23:30:00.000Z</time>
        <extensions>
          <ns3:TrackPointExtension>
            <ns3:atemp>30.0</ns3:atemp>
            <ns3:cad>0</ns3:cad>
          </ns3:TrackPointExtension>
        </extensions>
      </trkpt>
      <trkpt lat="43.3275161124765872955322265625" lon="-109.72026729024946689605712890625">
        <ele>3549.60009765625</ele>
        <time>2017-09-04T23:30:06.000Z</time>
        <extensions>
          <ns3:TrackPointExtension>
            <ns3:atemp>30.0</ns3:atemp>
            <ns3:cad>0</ns3:cad>
          </ns3:TrackPointExtension>
        </extensions>
      </trkpt>
      <trkpt lat="43.32752692513167858123779296875" lon="-109.720324538648128509521484375">
        <ele>3548.60009765625</ele>
        <time>2017-09-04T23:30:24.000Z</time>
        <extensions>
          <ns3:TrackPointExtension>
            <ns3:atemp>30.0</ns3:atemp>
            <ns3:cad>0</ns3:cad>
          </ns3:TrackPointExtension>
        </extensions>
      </trkpt>
      <trkpt lat="43.327516950666904449462890625" lon="-109.72035731188952922821044921875">
        <ele>3547.39990234375</ele>
        <time>2017-09-04T23:30:36.000Z</time>
        <extensions>
          <ns3:TrackPointExtension>
            <ns3:atemp>30.0</ns3:atemp>
            <ns3:cad>0</ns3:cad>
          </ns3:TrackPointExtension>
        </extensions>
      </trkpt>
      <trkpt lat="43.32752533257007598876953125" lon="-109.72040324471890926361083984375">
        <ele>3546.39990234375</ele>
        <time>2017-09-04T23:30:56.000Z</time>
        <extensions>
          <ns3:TrackPointExtension>
            <ns3:atemp>30.0</ns3:atemp>
            <ns3:cad>0</ns3:cad>
          </ns3:TrackPointExtension>
        </extensions>
      </trkpt>
      <trkpt lat="43.327529020607471466064453125" lon="-109.72043693996965885162353515625">
        <ele>3545.39990234375</ele>
        <time>2017-09-04T23:31:30.000Z</time>
        <extensions>
          <ns3:TrackPointExtension>
            <ns3:atemp>30.0</ns3:atemp>
            <ns3:cad>0</ns3:cad>
          </ns3:TrackPointExtension>
        </extensions>
      </trkpt>
      <trkpt lat="43.32754268310964107513427734375" lon="-109.7204482555389404296875">
        <ele>3544.39990234375</ele>
        <time>2017-09-04T23:31:41.000Z</time>
        <extensions>
          <ns3:TrackPointExtension>
            <ns3:atemp>30.0</ns3:atemp>
            <ns3:cad>0</ns3:cad>
          </ns3:TrackPointExtension>
        </extensions>
      </trkpt>
      <trkpt lat="43.32754335366189479827880859375" lon="-109.7204507701098918914794921875">
        <ele>3544.199951171875</ele>
        <time>2017-09-04T23:31:42.000Z</time>
        <extensions>
          <ns3:TrackPointExtension>
            <ns3:atemp>30.0</ns3:atemp>
            <ns3:cad>0</ns3:cad>
          </ns3:TrackPointExtension>
        </extensions>
      </trkpt>
      <trkpt lat="43.32755408249795436859130859375" lon="-109.7204698808491230010986328125">
        <ele>3543.199951171875</ele>
        <time>2017-09-04T23:31:51.000Z</time>
        <extensions>
          <ns3:TrackPointExtension>
            <ns3:atemp>30.0</ns3:atemp>
            <ns3:cad>61</ns3:cad>
          </ns3:TrackPointExtension>
        </extensions>
      </trkpt>
      <trkpt lat="43.32755307666957378387451171875" lon="-109.72050298936665058135986328125">
        <ele>3542</ele>
        <time>2017-09-04T23:31:57.000Z</time>
        <extensions>
          <ns3:TrackPointExtension>
            <ns3:atemp>30.0</ns3:atemp>
            <ns3:cad>61</ns3:cad>
          </ns3:TrackPointExtension>
        </extensions>
      </trkpt>
      <trkpt lat="43.3275301940739154815673828125" lon="-109.7205593995749950408935546875">
        <ele>3541</ele>
        <time>2017-09-04T23:32:17.000Z</time>
        <extensions>
          <ns3:TrackPointExtension>
            <ns3:atemp>30.0</ns3:atemp>
            <ns3:cad>61</ns3:cad>
          </ns3:TrackPointExtension>
        </extensions>
      </trkpt>
      <trkpt lat="43.3275731094181537628173828125" lon="-109.7205805219709873199462890625">
        <ele>3539.800048828125</ele>
        <time>2017-09-04T23:32:40.000Z</time>
        <extensions>
          <ns3:TrackPointExtension>
            <ns3:atemp>30.0</ns3:atemp>
            <ns3:cad>0</ns3:cad>
          </ns3:TrackPointExtension>
        </extensions>
      </trkpt>
      <trkpt lat="43.32757285796105861663818359375" lon="-109.72058580256998538970947265625">
        <ele>3538.800048828125</ele>
        <time>2017-09-04T23:32:47.000Z</time>
        <extensions>
          <ns3:TrackPointExtension>
            <ns3:atemp>31.0</ns3:atemp>
            <ns3:cad>0</ns3:cad>
          </ns3:TrackPointExtension>
        </extensions>
      </trkpt>
      <trkpt lat="43.32758911885321140289306640625" lon="-109.72060851752758026123046875">
        <ele>3537.800048828125</ele>
        <time>2017-09-04T23:33:02.000Z</time>
        <extensions>
          <ns3:TrackPointExtension>
            <ns3:atemp>31.0</ns3:atemp>
            <ns3:cad>0</ns3:cad>
          </ns3:TrackPointExtension>
        </extensions>
      </trkpt>
      <trkpt lat="43.32757067866623401641845703125" lon="-109.72064833156764507293701171875">
        <ele>3536.60009765625</ele>
        <time>2017-09-04T23:33:22.000Z</time>
        <extensions>
          <ns3:TrackPointExtension>
            <ns3:atemp>31.0</ns3:atemp>
            <ns3:cad>61</ns3:cad>
          </ns3:TrackPointExtension>
        </extensions>
      </trkpt>
      <trkpt lat="43.327591381967067718505859375" lon="-109.72068252973258495330810546875">
        <ele>3535.60009765625</ele>
        <time>2017-09-04T23:33:36.000Z</time>
        <extensions>
          <ns3:TrackPointExtension>
            <ns3:atemp>31.0</ns3:atemp>
            <ns3:cad>61</ns3:cad>
          </ns3:TrackPointExtension>
        </extensions>
      </trkpt>
      <trkpt lat="43.32756531424820423126220703125" lon="-109.72068856470286846160888671875">
        <ele>3534.60009765625</ele>
        <time>2017-09-04T23:33:45.000Z</time>
        <extensions>
          <ns3:TrackPointExtension>
            <ns3:atemp>31.0</ns3:atemp>
            <ns3:cad>0</ns3:cad>
          </ns3:TrackPointExtension>
        </extensions>
      </trkpt>
      <trkpt lat="43.32758643664419651031494140625" lon="-109.720717482268810272216796875">
        <ele>3533.39990234375</ele>
        <time>2017-09-04T23:33:56.000Z</time>
        <extensions>
          <ns3:TrackPointExtension>
            <ns3:atemp>31.0</ns3:atemp>
            <ns3:cad>0</ns3:cad>
          </ns3:TrackPointExtension>
        </extensions>
      </trkpt>
      <trkpt lat="43.32756380550563335418701171875" lon="-109.7207473218441009521484375">
        <ele>3532.39990234375</ele>
        <time>2017-09-04T23:34:45.000Z</time>
        <extensions>
          <ns3:TrackPointExtension>
            <ns3:atemp>31.0</ns3:atemp>
            <ns3:cad>0</ns3:cad>
          </ns3:TrackPointExtension>
        </extensions>
      </trkpt>
      <trkpt lat="43.32760906778275966644287109375" lon="-109.7207877226173877716064453125">
        <ele>3531.39990234375</ele>
        <time>2017-09-04T23:34:56.000Z</time>
        <extensions>
          <ns3:TrackPointExtension>
            <ns3:atemp>31.0</ns3:atemp>
            <ns3:cad>0</ns3:cad>
          </ns3:TrackPointExtension>
        </extensions>
      </trkpt>
      <trkpt lat="43.327620215713977813720703125" lon="-109.72079937346279621124267578125">
        <ele>3530.199951171875</ele>
        <time>2017-09-04T23:35:07.000Z</time>
        <extensions>
          <ns3:TrackPointExtension>
            <ns3:atemp>31.0</ns3:atemp>
            <ns3:cad>0</ns3:cad>
          </ns3:TrackPointExtension>
        </extensions>
      </trkpt>
      <trkpt lat="43.32764091901481151580810546875" lon="-109.7208088450133800506591796875">
        <ele>3529.199951171875</ele>
        <time>2017-09-04T23:35:18.000Z</time>
        <extensions>
          <ns3:TrackPointExtension>
            <ns3:atemp>31.0</ns3:atemp>
            <ns3:cad>0</ns3:cad>
          </ns3:TrackPointExtension>
        </extensions>
      </trkpt>
      <trkpt lat="43.32766790874302387237548828125" lon="-109.720876403152942657470703125">
        <ele>3528</ele>
        <time>2017-09-04T23:35:46.000Z</time>
        <extensions>
          <ns3:TrackPointExtension>
            <ns3:atemp>31.0</ns3:atemp>
            <ns3:cad>0</ns3:cad>
          </ns3:TrackPointExtension>
        </extensions>
      </trkpt>
      <trkpt lat="43.32764469087123870849609375" lon="-109.72090699709951877593994140625">
        <ele>3527</ele>
        <time>2017-09-04T23:35:51.000Z</time>
        <extensions>
          <ns3:TrackPointExtension>
            <ns3:atemp>31.0</ns3:atemp>
            <ns3:cad>0</ns3:cad>
          </ns3:TrackPointExtension>
        </extensions>
      </trkpt>
      <trkpt lat="43.32763572223484516143798828125" lon="-109.7209483198821544647216796875">
        <ele>3527.39990234375</ele>
        <time>2017-09-04T23:36:05.000Z</time>
        <extensions>
          <ns3:TrackPointExtension>
            <ns3:atemp>31.0</ns3:atemp>
            <ns3:cad>61</ns3:cad>
          </ns3:TrackPointExtension>
        </extensions>
      </trkpt>
      <trkpt lat="43.3276099897921085357666015625" lon="-109.72104446031153202056884765625">
        <ele>3526</ele>
        <time>2017-09-04T23:36:33.000Z</time>
        <extensions>
          <ns3:TrackPointExtension>
            <ns3:atemp>31.0</ns3:atemp>
            <ns3:cad>0</ns3:cad>
          </ns3:TrackPointExtension>
        </extensions>
      </trkpt>
      <trkpt lat="43.3276344649493694305419921875" lon="-109.72108670510351657867431640625">
        <ele>3524.800048828125</ele>
        <time>2017-09-04T23:36:44.000Z</time>
        <extensions>
          <ns3:TrackPointExtension>
            <ns3:atemp>31.0</ns3:atemp>
            <ns3:cad>0</ns3:cad>
          </ns3:TrackPointExtension>
        </extensions>
      </trkpt>
      <trkpt lat="43.3276378177106380462646484375" lon="-109.72110145725309848785400390625">
        <ele>3525.60009765625</ele>
        <time>2017-09-04T23:36:57.000Z</time>
        <extensions>
          <ns3:TrackPointExtension>
            <ns3:atemp>31.0</ns3:atemp>
            <ns3:cad>61</ns3:cad>
          </ns3:TrackPointExtension>
        </extensions>
      </trkpt>
      <trkpt lat="43.327648378908634185791015625" lon="-109.721134565770626068115234375">
        <ele>3523.800048828125</ele>
        <time>2017-09-04T23:37:29.000Z</time>
        <extensions>
          <ns3:TrackPointExtension>
            <ns3:atemp>31.0</ns3:atemp>
            <ns3:cad>0</ns3:cad>
          </ns3:TrackPointExtension>
        </extensions>
      </trkpt>
      <trkpt lat="43.32771501503884792327880859375" lon="-109.72118678502738475799560546875">
        <ele>3522.60009765625</ele>
        <time>2017-09-04T23:37:54.000Z</time>
        <extensions>
          <ns3:TrackPointExtension>
            <ns3:atemp>31.0</ns3:atemp>
            <ns3:cad>0</ns3:cad>
          </ns3:TrackPointExtension>
        </extensions>
      </trkpt>
      <trkpt lat="43.32766740582883358001708984375" lon="-109.7212762199342250823974609375">
        <ele>3521.60009765625</ele>
        <time>2017-09-04T23:38:20.000Z</time>
        <extensions>
          <ns3:TrackPointExtension>
            <ns3:atemp>31.0</ns3:atemp>
            <ns3:cad>0</ns3:cad>
          </ns3:TrackPointExtension>
        </extensions>
      </trkpt>
      <trkpt lat="43.32769104279577732086181640625" lon="-109.72131033428013324737548828125">
        <ele>3520.60009765625</ele>
        <time>2017-09-04T23:38:30.000Z</time>
        <extensions>
          <ns3:TrackPointExtension>
            <ns3:atemp>31.0</ns3:atemp>
            <ns3:cad>0</ns3:cad>
          </ns3:TrackPointExtension>
        </extensions>
      </trkpt>
      <trkpt lat="43.32767444662749767303466796875" lon="-109.721349142491817474365234375">
        <ele>3519.39990234375</ele>
        <time>2017-09-04T23:38:37.000Z</time>
        <extensions>
          <ns3:TrackPointExtension>
            <ns3:atemp>31.0</ns3:atemp>
            <ns3:cad>61</ns3:cad>
          </ns3:TrackPointExtension>
        </extensions>
      </trkpt>
      <trkpt lat="43.32765986211597919464111328125" lon="-109.721367917954921722412109375">
        <ele>3518.39990234375</ele>
        <time>2017-09-04T23:38:43.000Z</time>
        <extensions>
          <ns3:TrackPointExtension>
            <ns3:atemp>31.0</ns3:atemp>
            <ns3:cad>0</ns3:cad>
          </ns3:TrackPointExtension>
        </extensions>
      </trkpt>
      <trkpt lat="43.327689953148365020751953125" lon="-109.7214019484817981719970703125">
        <ele>3517.39990234375</ele>
        <time>2017-09-04T23:38:54.000Z</time>
        <extensions>
          <ns3:TrackPointExtension>
            <ns3:atemp>31.0</ns3:atemp>
            <ns3:cad>0</ns3:cad>
          </ns3:TrackPointExtension>
        </extensions>
      </trkpt>
      <trkpt lat="43.32768567837774753570556640625" lon="-109.72142030484974384307861328125">
        <ele>3516.39990234375</ele>
        <time>2017-09-04T23:39:01.000Z</time>
        <extensions>
          <ns3:TrackPointExtension>
            <ns3:atemp>31.0</ns3:atemp>
            <ns3:cad>61</ns3:cad>
          </ns3:TrackPointExtension>
        </extensions>
      </trkpt>
      <trkpt lat="43.32773630507290363311767578125" lon="-109.72144343890249729156494140625">
        <ele>3515.39990234375</ele>
        <time>2017-09-04T23:39:22.000Z</time>
        <extensions>
          <ns3:TrackPointExtension>
            <ns3:atemp>31.0</ns3:atemp>
            <ns3:cad>61</ns3:cad>
          </ns3:TrackPointExtension>
        </extensions>
      </trkpt>
      <trkpt lat="43.3277457766234874725341796875" lon="-109.72144142724573612213134765625">
        <ele>3514.199951171875</ele>
        <time>2017-09-04T23:39:34.000Z</time>
        <extensions>
          <ns3:TrackPointExtension>
            <ns3:atemp>31.0</ns3:atemp>
            <ns3:cad>0</ns3:cad>
          </ns3:TrackPointExtension>
        </extensions>
      </trkpt>
      <trkpt lat="43.3277890272438526153564453125" lon="-109.721480906009674072265625">
        <ele>3513.199951171875</ele>
        <time>2017-09-04T23:39:42.000Z</time>
        <extensions>
          <ns3:TrackPointExtension>
            <ns3:atemp>31.0</ns3:atemp>
            <ns3:cad>62</ns3:cad>
          </ns3:TrackPointExtension>
        </extensions>
      </trkpt>
      <trkpt lat="43.3277893625199794769287109375" lon="-109.721505381166934967041015625">
        <ele>3512</ele>
        <time>2017-09-04T23:40:10.000Z</time>
        <extensions>
          <ns3:TrackPointExtension>
            <ns3:atemp>31.0</ns3:atemp>
            <ns3:cad>0</ns3:cad>
          </ns3:TrackPointExtension>
        </extensions>
      </trkpt>
      <trkpt lat="43.3278373070061206817626953125" lon="-109.72152625210583209991455078125">
        <ele>3511</ele>
        <time>2017-09-04T23:40:36.000Z</time>
        <extensions>
          <ns3:TrackPointExtension>
            <ns3:atemp>31.0</ns3:atemp>
            <ns3:cad>0</ns3:cad>
          </ns3:TrackPointExtension>
        </extensions>
      </trkpt>
      <trkpt lat="43.3278720080852508544921875" lon="-109.72152256406843662261962890625">
        <ele>3510</ele>
        <time>2017-09-04T23:41:05.000Z</time>
        <extensions>
          <ns3:TrackPointExtension>
            <ns3:atemp>31.0</ns3:atemp>
            <ns3:cad>0</ns3:cad>
          </ns3:TrackPointExtension>
        </extensions>
      </trkpt>
      <trkpt lat="43.32788282074034214019775390625" lon="-109.72153513692319393157958984375">
        <ele>3511.39990234375</ele>
        <time>2017-09-04T23:41:08.000Z</time>
        <extensions>
          <ns3:TrackPointExtension>
            <ns3:atemp>31.0</ns3:atemp>
            <ns3:cad>61</ns3:cad>
          </ns3:TrackPointExtension>
        </extensions>
      </trkpt>
      <trkpt lat="43.32788248546421527862548828125" lon="-109.721542932093143463134765625">
        <ele>3510.199951171875</ele>
        <time>2017-09-04T23:41:09.000Z</time>
        <extensions>
          <ns3:TrackPointExtension>
            <ns3:atemp>31.0</ns3:atemp>
            <ns3:cad>0</ns3:cad>
          </ns3:TrackPointExtension>
        </extensions>
      </trkpt>
      <trkpt lat="43.327917270362377166748046875" lon="-109.72157235257327556610107421875">
        <ele>3508.60009765625</ele>
        <time>2017-09-04T23:41:12.000Z</time>
        <extensions>
          <ns3:TrackPointExtension>
            <ns3:atemp>31.0</ns3:atemp>
            <ns3:cad>0</ns3:cad>
          </ns3:TrackPointExtension>
        </extensions>
      </trkpt>
      <trkpt lat="43.32793462090194225311279296875" lon="-109.72160990349948406219482421875">
        <ele>3508.60009765625</ele>
        <time>2017-09-04T23:41:17.000Z</time>
        <extensions>
          <ns3:TrackPointExtension>
            <ns3:atemp>31.0</ns3:atemp>
            <ns3:cad>61</ns3:cad>
          </ns3:TrackPointExtension>
        </extensions>
      </trkpt>
      <trkpt lat="43.3279355429112911224365234375" lon="-109.72161727957427501678466796875">
        <ele>3507.60009765625</ele>
        <time>2017-09-04T23:41:25.000Z</time>
        <extensions>
          <ns3:TrackPointExtension>
            <ns3:atemp>31.0</ns3:atemp>
            <ns3:cad>0</ns3:cad>
          </ns3:TrackPointExtension>
        </extensions>
      </trkpt>
      <trkpt lat="43.32791081629693508148193359375" lon="-109.72163873724639415740966796875">
        <ele>3507.199951171875</ele>
        <time>2017-09-04T23:41:46.000Z</time>
        <extensions>
          <ns3:TrackPointExtension>
            <ns3:atemp>30.0</ns3:atemp>
            <ns3:cad>61</ns3:cad>
          </ns3:TrackPointExtension>
        </extensions>
      </trkpt>
      <trkpt lat="43.3279362134635448455810546875" lon="-109.7216748632490634918212890625">
        <ele>3506.60009765625</ele>
        <time>2017-09-04T23:41:50.000Z</time>
        <extensions>
          <ns3:TrackPointExtension>
            <ns3:atemp>30.0</ns3:atemp>
            <ns3:cad>61</ns3:cad>
          </ns3:TrackPointExtension>
        </extensions>
      </trkpt>
      <trkpt lat="43.32794987596571445465087890625" lon="-109.72168743610382080078125">
        <ele>3506.39990234375</ele>
        <time>2017-09-04T23:41:51.000Z</time>
        <extensions>
          <ns3:TrackPointExtension>
            <ns3:atemp>30.0</ns3:atemp>
            <ns3:cad>61</ns3:cad>
          </ns3:TrackPointExtension>
        </extensions>
      </trkpt>
      <trkpt lat="43.32794317044317722320556640625" lon="-109.721724651753902435302734375">
        <ele>3505.199951171875</ele>
        <time>2017-09-04T23:41:59.000Z</time>
        <extensions>
          <ns3:TrackPointExtension>
            <ns3:atemp>30.0</ns3:atemp>
            <ns3:cad>0</ns3:cad>
          </ns3:TrackPointExtension>
        </extensions>
      </trkpt>
      <trkpt lat="43.327944092452526092529296875" lon="-109.72173504531383514404296875">
        <ele>3504.800048828125</ele>
        <time>2017-09-04T23:42:02.000Z</time>
        <extensions>
          <ns3:TrackPointExtension>
            <ns3:atemp>30.0</ns3:atemp>
            <ns3:cad>0</ns3:cad>
          </ns3:TrackPointExtension>
        </extensions>
      </trkpt>
    </trkseg>
  </trk>
</gpx>
